NORAD_CAT_ID,OBJECT_NAME,OBJECT_TYPE,EPOCH,MEAN_MOTION,ECCENTRICITY,INCLINATION,RA_OF_ASC_NODE,ARG_OF_PERICENTER,MEAN_ANOMALY,BSTAR,MEAN_MOTION_DOT,MEAN_MOTION_DDOT,TLE_LINE0,TLE_LINE1,TLE_LINE2,SEMIMAJOR_AXIS,PERIOD,APOGEE,PERIGEE,DECAYED
53835.0,STARLINK-4783,PAYLOAD,2024-03-05 05:09:23,15.08822064,0.0001559,53.2182,1.0909,115.241,244.8744,-0.00011675,-2.145e-05,0.0,0 STARLINK-4783,1 53835U 22114T   24065.21485594 -.00002145  00000-0 -11675-3 0  9996,2 53835  53.2182   1.0909 0001559 115.2410 244.8744 15.08822064 81952,6917.935,95.439,540.879,538.722,0.0
53835.0,STARLINK-4783,PAYLOAD,2024-03-06 01:49:22,15.0885462,0.0001825,53.2203,357.2298,104.3118,255.8077,-0.00015868,-2.814e-05,0.0,0 STARLINK-4783,1 53835U 22114T   24066.07596044 -.00002814  00000-0 -15868-3 0  9995,2 53835  53.2203 357.2298 0001825 104.3118 255.8077 15.08854620 81542,6917.836,95.437,540.963,538.438,0.0
53835.0,STARLINK-4783,PAYLOAD,2024-03-07 00:04:47,15.08823473,0.0001391,53.2192,353.0696,112.7508,247.3631,0.00030714,4.601e-05,0.0,0 STARLINK-4783,1 53835U 22114T   24067.00333186  .00004601  00000-0  30714-3 0  9996,2 53835  53.2192 353.0696 0001391 112.7508 247.3631 15.08823473 81688,6917.931,95.439,540.758,538.834,0.0
53835.0,STARLINK-4783,PAYLOAD,2024-03-07 04:50:57,15.08821263,0.0001893,53.2198,352.1722,121.5216,238.5961,0.0004058,6.173e-05,0.0,0 STARLINK-4783,1 53835U 22114T   24067.20205343  .00006173  00000-0  40580-3 0  9999,2 53835  53.2198 352.1722 0001893 121.5216 238.5961 15.08821263 82252,6917.938,95.439,541.112,538.493,0.0
53835.0,STARLINK-4783,PAYLOAD,2024-03-08 01:30:56,15.08869682,0.0001499,53.2188,348.3057,103.6488,256.4671,0.00044215,6.761e-05,0.0,0 STARLINK-4783,1 53835U 22114T   24068.06315264  .00006761  00000-0  44215-3 0  9990,2 53835  53.2188 348.3057 0001499 103.6488 256.4671 15.08869682 81841,6917.79,95.436,540.692,538.618,0.0
53835.0,STARLINK-4783,PAYLOAD,2024-03-08 11:03:15,15.0885565,0.000167,53.2193,346.5237,81.3097,278.8085,0.00019647,2.841e-05,0.0,0 STARLINK-4783,1 53835U 22114T   24068.46059684  .00002841  00000-0  19647-3 0  9991,2 53835  53.2193 346.5237 0001670  81.3097 278.8085 15.08855650 81900,6917.833,95.437,540.853,538.542,0.0
53835.0,STARLINK-4783,PAYLOAD,2024-03-08 19:00:11,15.08840394,0.0002317,53.2186,345.0386,88.1186,272.0071,-0.00012054,-2.206e-05,0.0,0 STARLINK-4783,1 53835U 22114T   24068.79180540 -.00002206  00000-0 -12054-3 0  9995,2 53835  53.2186 345.0386 0002317  88.1186 272.0071 15.08840394 81959,6917.879,95.438,541.347,538.141,0.0
53835.0,STARLINK-4783,PAYLOAD,2024-03-09 10:54:03,15.08836628,0.000123,53.2164,342.0648,93.1927,266.9205,-0.00011223,-2.073e-05,0.0,0 STARLINK-4783,1 53835U 22114T   24069.45420737 -.00002073  00000-0 -11223-3 0  9993,2 53835  53.2164 342.0648 0001230  93.1927 266.9205 15.08836628 82592,6917.891,95.438,540.607,538.905,0.0
53835.0,STARLINK-4783,PAYLOAD,2024-03-10 04:23:17,15.08853419,0.0001134,53.2155,338.7923,99.6987,260.4133,-0.00012464,-2.272e-05,0.0,0 STARLINK-4783,1 53835U 22114T   24070.18283765 -.00002272  00000-0 -12464-3 0  9992,2 53835  53.2155 338.7923 0001134  99.6987 260.4133 15.08853419 82169,6917.839,95.437,540.489,538.92,0.0
53835.0,STARLINK-4783,PAYLOAD,2024-03-10 10:44:51,15.08828792,0.0001882,53.2175,337.6042,84.4868,275.6339,-7.1219e-05,-1.421e-05,0.0,0 STARLINK-4783,1 53835U 22114T   24070.44781308 -.00001421  00000-0 -71219-4 0  9996,2 53835  53.2175 337.6042 0001882  84.4868 275.6339 15.08828792 82208,6917.915,95.438,541.082,538.478,0.0
53835.0,STARLINK-4783,PAYLOAD,2024-03-10 21:52:33,15.08824007,0.0001649,53.2142,335.5213,76.6512,283.4664,1.6613e-05,-2.4e-07,0.0,0 STARLINK-4783,1 53835U 22114T   24070.91149920 -.00000024  00000-0  16613-4 0  9990,2 53835  53.2142 335.5213 0001649  76.6512 283.4664 15.08824007 82819,6917.929,95.439,540.935,538.654,0.0
53835.0,STARLINK-4783,PAYLOAD,2024-03-11 10:35:38,15.08836835,0.0001549,53.2166,333.1439,81.004,279.1128,0.00014658,2.045e-05,0.0,0 STARLINK-4783,1 53835U 22114T   24071.44141706  .00002045  00000-0  14658-3 0  9993,2 53835  53.2166 333.1439 0001549  81.0040 279.1128 15.08836835 82891,6917.89,95.438,540.827,538.683,0.0
53835.0,STARLINK-4783,PAYLOAD,2024-03-12 23:09:30,15.08840035,0.000152,53.2181,326.302,93.4673,266.6493,0.00015562,2.19e-05,0.0,0 STARLINK-4783,1 53835U 22114T   24072.96493735  .00002190  00000-0  15562-3 0  9999,2 53835  53.2181 326.3020 0001520  93.4673 266.6493 15.08840035 83126,6917.88,95.438,540.797,538.694,0.0
53835.0,STARLINK-4783,PAYLOAD,2024-03-13 02:20:16,15.08846067,0.0001614,53.2168,325.709,88.9767,271.141,0.00015943,2.251e-05,0.0,0 STARLINK-4783,1 53835U 22114T   24073.09741466  .00002251  00000-0  15943-3 0  9992,2 53835  53.2168 325.7090 0001614  88.9767 271.1410 15.08846067 82601,6917.862,95.437,540.843,538.61,0.0
53835.0,STARLINK-4783,PAYLOAD,2024-03-13 10:17:12,15.08839504,0.0001644,53.2165,324.2209,91.3314,268.7866,5.0964e-05,5.23e-06,0.0,0 STARLINK-4783,1 53835U 22114T   24073.42861769  .00000523  00000-0  50964-4 0  9991,2 53835  53.2165 324.2209 0001644  91.3314 268.7866 15.08839504 82653,6917.882,95.438,540.884,538.61,0.0
53835.0,STARLINK-4783,PAYLOAD,2024-03-14 02:11:03,15.08850522,0.0001526,53.2198,321.2454,100.499,259.6174,9.6842e-05,1.254e-05,0.0,0 STARLINK-4783,1 53835U 22114T   24074.09100941  .00001254  00000-0  96842-4 0  9990,2 53835  53.2198 321.2454 0001526 100.4990 259.6174 15.08850522 82754,6917.848,95.437,540.769,538.658,0.0
53835.0,STARLINK-4783,PAYLOAD,2024-03-14 21:15:41,15.08841457,0.0001409,53.2159,317.6807,91.6358,268.4795,5.1269e-05,5.28e-06,0.0,0 STARLINK-4783,1 53835U 22114T   24074.88589652  .00000528  00000-0  51269-4 0  9994,2 53835  53.2159 317.6807 0001409  91.6358 268.4795 15.08841457 82878,6917.876,95.437,540.716,538.766,0.0
53835.0,STARLINK-4783,PAYLOAD,2024-03-15 02:01:50,15.08841449,0.000159,53.2155,316.787,94.0525,266.0649,0.00014758,2.062e-05,0.0,0 STARLINK-4783,1 53835U 22114T   24075.08461603  .00002062  00000-0  14758-3 0  9998,2 53835  53.2155 316.7870 0001590  94.0525 266.0649 15.08841449 83445,6917.876,95.437,540.841,538.641,0.0
53835.0,STARLINK-4783,PAYLOAD,2024-03-16 14:35:44,15.08818421,0.0001298,53.2155,309.9472,101.0505,259.0633,0.0002778,4.133e-05,0.0,0 STARLINK-4783,1 53835U 22114T   24076.60815353  .00004133  00000-0  27780-3 0  9992,2 53835  53.2155 309.9472 0001298 101.0505 259.0633 15.08818421 83673,6917.946,95.439,540.709,538.913,0.0
53835.0,STARLINK-4783,PAYLOAD,2024-03-16 20:57:16,15.08835409,0.0001488,53.2177,308.7609,96.6552,263.461,5.8553e-05,6.44e-06,0.0,0 STARLINK-4783,1 53835U 22114T   24076.87310621  .00000644  00000-0  58553-4 0  9995,2 53835  53.2177 308.7609 0001488  96.6552 263.4610 15.08835409 83172,6917.894,95.438,540.789,538.73,0.0
53835.0,STARLINK-4783,PAYLOAD,2024-03-17 22:23:26,15.08842222,0.0001304,53.2166,304.002,83.9083,276.2058,0.00011897,1.606e-05,0.0,0 STARLINK-4783,1 53835U 22114T   24077.93294480  .00001606  00000-0  11897-3 0  9995,2 53835  53.2166 304.0020 0001304  83.9083 276.2058 15.08842222 83877,6917.874,95.437,540.641,538.837,0.0
53835.0,STARLINK-4783,PAYLOAD,2024-03-17 23:58:49,15.08843949,0.0001415,53.2173,303.7045,96.854,263.2613,0.0001313,1.803e-05,0.0,0 STARLINK-4783,1 53835U 22114T   24077.99918308  .00001803  00000-0  13130-3 0  9994,2 53835  53.2173 303.7045 0001415  96.8540 263.2613 15.08843949 83344,6917.868,95.437,540.712,538.754,0.0
53835.0,STARLINK-4783,PAYLOAD,2024-03-18 20:38:50,15.08840637,0.0001482,53.2176,299.8387,101.1121,259.0038,7.5391e-05,9.12e-06,0.0,0 STARLINK-4783,1 53835U 22114T   24078.86030639  .00000912  00000-0  75391-4 0  9991,2 53835  53.2176 299.8387 0001482 101.1121 259.0038 15.08840637 83479,6917.878,95.438,540.769,538.718,0.0
53835.0,STARLINK-4783,PAYLOAD,2024-03-18 22:14:13,15.08841042,0.000138,53.2172,299.5412,97.1299,262.985,7.5922e-05,9.21e-06,0.0,0 STARLINK-4783,1 53835U 22114T   24078.92654599  .00000921  00000-0  75922-4 0  9995,2 53835  53.2172 299.5412 0001380  97.1299 262.9850 15.08841042 84026,6917.877,95.437,540.697,538.788,0.0
53835.0,STARLINK-4783,PAYLOAD,2024-03-18 23:49:36,15.08847192,0.0001435,53.2173,299.2423,103.7741,256.3411,5.6631e-05,6.14e-06,0.0,0 STARLINK-4783,1 53835U 22114T   24078.99278176  .00000614  00000-0  56631-4 0  9990,2 53835  53.2173 299.2423 0001435 103.7741 256.3411 15.08847192 84036,6917.858,95.437,540.716,538.731,0.0
53835.0,STARLINK-4783,PAYLOAD,2024-03-19 22:04:59,15.08855217,0.0001394,53.217,295.0799,87.5113,272.6039,0.00014121,1.961e-05,0.0,0 STARLINK-4783,1 53835U 22114T   24079.92013405  .00001961  00000-0  14121-3 0  9999,2 53835  53.2170 295.0799 0001394  87.5113 272.6039 15.08855217 83638,6917.834,95.437,540.663,538.735,0.0
53835.0,STARLINK-4783,PAYLOAD,2024-03-20 13:58:51,15.0884163,0.0001318,53.2175,292.1076,96.9634,263.1508,2.1154e-05,4.9e-07,0.0,0 STARLINK-4783,1 53835U 22114T   24080.58254553  .00000049  00000-0  21154-4 0  9995,2 53835  53.2175 292.1076 0001318  96.9634 263.1508 15.08841630 84278,6917.875,95.437,540.652,538.829,0.0
53835.0,STARLINK-4783,PAYLOAD,2024-03-20 20:20:24,15.08842286,0.0001353,53.2173,290.9174,91.7011,268.4136,2.0584e-05,4e-07,0.0,0 STARLINK-4783,1 53835U 22114T   24080.84750503  .00000040  00000-0  20584-4 0  9997,2 53835  53.2173 290.9174 0001353  91.7011 268.4136 15.08842286 83779,6917.873,95.437,540.674,538.802,0.0
53835.0,STARLINK-4783,PAYLOAD,2024-03-21 13:49:39,15.08838893,0.0001321,53.2156,287.6463,94.9562,265.1581,5.8233e-06,-1.95e-06,0.0,0 STARLINK-4783,1 53835U 22114T   24081.57614640 -.00000195  00000-0  58233-5 0  9994,2 53835  53.2156 287.6463 0001321  94.9562 265.1581 15.08838893 84425,6917.884,95.438,540.663,538.835,0.0
53835.0,STARLINK-4783,PAYLOAD,2024-03-21 20:11:11,15.08846375,0.0001348,53.2156,286.4575,90.549,269.5657,0.00012756,1.743e-05,0.0,0 STARLINK-4783,1 53835U 22114T   24081.84110319  .00001743  00000-0  12756-3 0  9995,2 53835  53.2156 286.4575 0001348  90.5490 269.5657 15.08846375 84467,6917.861,95.437,540.658,538.793,0.0
